NORAD_CAT_ID,OBJECT_NAME,OBJECT_TYPE,EPOCH,MEAN_MOTION,ECCENTRICITY,INCLINATION,RA_OF_ASC_NODE,ARG_OF_PERICENTER,MEAN_ANOMALY,BSTAR,MEAN_MOTION_DOT,MEAN_MOTION_DDOT,TLE_LINE0,TLE_LINE1,TLE_LINE2,SEMIMAJOR_AXIS,PERIOD,APOGEE,PERIGEE,DECAYED
52989.0,STARLINK-4293,PAYLOAD,2024-07-14 13:33:58,15.08840262,0.0001584,53.2185,291.6604,100.346,259.7711,0.00015266,2.142e-05,0.0,0 STARLINK-4293,1 52989U 22076D   24196.56525798  .00002142  00000-0  15266-3 0  9991,2 52989  53.2185 291.6604 0001584 100.3460 259.7711 15.08840262112124,6917.88,95.438,540.84,538.649,0.0
52989.0,STARLINK-4293,PAYLOAD,2024-07-14 23:06:15,15.08857018,0.0001319,53.2175,289.8692,81.5489,278.5653,0.00027691,4.124e-05,0.0,0 STARLINK-4293,1 52989U 22076D   24196.96268343  .00004124  00000-0  27691-3 0  9992,2 52989  53.2175 289.8692 0001319  81.5489 278.5653 15.08857018112183,6917.828,95.436,540.606,538.781,0.0
52989.0,STARLINK-4293,PAYLOAD,2024-07-15 11:49:22,15.08831248,0.0001789,53.2179,287.4955,103.8717,256.2474,-8.2536e-05,-1.601e-05,0.0,0 STARLINK-4293,1 52989U 22076D   24197.49262213 -.00001601  00000-0 -82536-4 0  9990,2 52989  53.2179 287.4955 0001789 103.8717 256.2474 15.08831248112266,6917.907,95.438,541.01,538.535,0.0
52989.0,STARLINK-4293,PAYLOAD,2024-07-15 13:24:45,15.08831826,0.0001765,53.2173,287.1971,102.1575,257.9615,-6.8333e-05,-1.375e-05,0.0,0 STARLINK-4293,1 52989U 22076D   24197.55886290 -.00001375  00000-0 -68333-4 0  9991,2 52989  53.2173 287.1971 0001765 102.1575 257.9615 15.08831826111809,6917.905,95.438,540.991,538.549,0.0
52989.0,STARLINK-4293,PAYLOAD,2024-07-16 13:15:32,15.08848576,0.0001324,53.2155,282.7319,86.8707,273.2436,0.0001565,2.204e-05,0.0,0 STARLINK-4293,1 52989U 22076D   24198.55245429  .00002204  00000-0  15650-3 0  9998,2 52989  53.2155 282.7319 0001324  86.8707 273.2436 15.08848576112423,6917.854,95.437,540.635,538.803,0.0
52989.0,STARLINK-4293,PAYLOAD,2024-07-17 05:09:24,15.08830933,0.0001201,53.2155,279.7591,104.488,255.6246,0.0002142,3.122e-05,0.0,0 STARLINK-4293,1 52989U 22076D   24199.21486415  .00003122  00000-0  21420-3 0  9996,2 52989  53.2155 279.7591 0001201 104.4880 255.6246 15.08830933112526,6917.908,95.438,540.604,538.942,0.0
52989.0,STARLINK-4293,PAYLOAD,2024-07-17 13:06:20,15.08836489,0.0001263,53.2157,278.2716,103.2465,256.8668,0.00010913,1.449e-05,0.0,0 STARLINK-4293,1 52989U 22076D   24199.54606492  .00001449  00000-0  10913-3 0  9996,2 52989  53.2157 278.2716 0001263 103.2465 256.8668 15.08836489112102,6917.891,95.438,540.63,538.882,0.0
52989.0,STARLINK-4293,PAYLOAD,2024-07-17 22:38:38,15.08847276,0.000127,53.2163,276.4867,104.2971,255.8162,0.00021785,3.182e-05,0.0,0 STARLINK-4293,1 52989U 22076D   24199.94350020  .00003182  00000-0  21785-3 0  9998,2 52989  53.2163 276.4867 0001270 104.2971 255.8162 15.08847276112167,6917.858,95.437,540.602,538.845,0.0
52989.0,STARLINK-4293,PAYLOAD,2024-07-18 11:21:44,15.08840208,0.0001566,53.2161,274.1113,90.8252,269.2919,0.00023869,3.513e-05,0.0,0 STARLINK-4293,1 52989U 22076D   24200.47342648  .00003513  00000-0  23869-3 0  9999,2 52989  53.2161 274.1113 0001566  90.8252 269.2919 15.08840208112712,6917.88,95.438,540.828,538.661,0.0
52989.0,STARLINK-4293,PAYLOAD,2024-07-19 11:12:31,15.0884229,0.0001492,53.2157,269.649,96.9462,263.17,0.00019429,2.806e-05,0.0,0 STARLINK-4293,1 52989U 22076D   24201.46702585  .00002806  00000-0  19429-3 0  9990,2 52989  53.2157 269.6490 0001492  96.9462 263.1700 15.08842290112390,6917.873,95.437,540.771,538.706,0.0
52989.0,STARLINK-4293,PAYLOAD,2024-07-20 04:41:45,15.08832909,0.0001502,53.216,266.3774,98.7564,261.3598,0.00037078,5.617e-05,0.0,0 STARLINK-4293,1 52989U 22076D   24202.19566990  .00005617  00000-0  37078-3 0  9992,2 52989  53.2160 266.3774 0001502  98.7564 261.3598 15.08832909112973,6917.902,95.438,540.806,538.728,0.0
52989.0,STARLINK-4293,PAYLOAD,2024-07-20 11:03:18,15.08836345,0.0001415,53.215,265.1931,79.2526,280.8625,9.5481e-05,1.232e-05,0.0,0 STARLINK-4293,1 52989U 22076D   24202.46062778  .00001232  00000-0  95481-4 0  9999,2 52989  53.2150 265.1931 0001415  79.2526 280.8625 15.08836345112547,6917.892,95.438,540.735,538.778,0.0
52989.0,STARLINK-4293,PAYLOAD,2024-07-21 10:54:05,15.08831159,0.0001351,53.2156,260.7258,84.6251,275.4895,2.2729e-06,-2.52e-06,0.0,0 STARLINK-4293,1 52989U 22076D   24203.45423286 -.00000252  00000-0  22729-5 0  9992,2 52989  53.2156 260.7258 0001351  84.6251 275.4895 15.08831159113166,6917.907,95.438,540.707,538.838,0.0
52989.0,STARLINK-4293,PAYLOAD,2024-07-22 12:20:15,15.08837853,0.0001355,53.2155,255.9671,73.0337,287.0804,3.3373e-05,2.43e-06,0.0,0 STARLINK-4293,1 52989U 22076D   24204.51407102  .00000243  00000-0  33373-4 0  9994,2 52989  53.2155 255.9671 0001355  73.0337 287.0804 15.08837853113325,6917.887,95.438,540.689,538.815,0.0
52989.0,STARLINK-4293,PAYLOAD,2024-07-23 12:11:02,15.08839089,0.0001351,53.2159,251.5092,98.8007,261.3138,0.00014928,2.089e-05,0.0,0 STARLINK-4293,1 52989U 22076D   24205.50766835  .00002089  00000-0  14928-3 0  9999,2 52989  53.2159 251.5092 0001351  98.8007 261.3138 15.08839089113006,6917.883,95.438,540.683,538.814,0.0
52989.0,STARLINK-4293,PAYLOAD,2024-07-24 04:04:55,15.08828567,0.0001889,53.2169,248.5365,112.6486,247.4706,9.7411e-06,-1.33e-06,0.0,0 STARLINK-4293,1 52989U 22076D   24206.17008337 -.00000133  00000-0  97411-5 0  9998,2 52989  53.2169 248.5365 0001889 112.6486 247.4706 15.08828567113575,6917.915,95.438,541.087,538.474,0.0
52989.0,STARLINK-4293,PAYLOAD,2024-07-24 10:26:29,15.08812467,0.0001421,53.2156,247.3468,101.2797,258.8355,-0.00012621,-2.294e-05,0.0,0 STARLINK-4293,1 52989U 22076D   24206.43506056 -.00002294  00000-0 -12621-3 0  9997,2 52989  53.2156 247.3468 0001421 101.2797 258.8355 15.08812467113616,6917.965,95.439,540.813,538.847,0.0
52989.0,STARLINK-4293,PAYLOAD,2024-07-25 10:17:13,15.08848543,0.0001657,53.2152,242.8849,69.7787,290.3383,0.00010938,1.454e-05,0.0,0 STARLINK-4293,1 52989U 22076D   24207.42863387  .00001454  00000-0  10938-3 0  9994,2 52989  53.2152 242.8849 0001657  69.7787 290.3383 15.08848543113765,6917.854,95.437,540.866,538.573,0.0
52989.0,STARLINK-4293,PAYLOAD,2024-07-26 10:08:01,15.08834118,0.0001466,53.2149,238.4265,94.3354,265.7806,0.00026788,3.977e-05,0.0,0 STARLINK-4293,1 52989U 22076D   24208.42223471  .00003977  00000-0  26788-3 0  9991,2 52989  53.2149 238.4265 0001466  94.3354 265.7806 15.08834118113912,6917.898,95.438,540.778,538.749,0.0
52989.0,STARLINK-4293,PAYLOAD,2024-07-27 06:48:01,15.0885104,0.0001495,53.2154,234.5589,96.5961,263.5202,-3.1564e-05,-7.9e-06,0.0,0 STARLINK-4293,1 52989U 22076D   24209.28334977 -.00000790  00000-0 -31564-4 0  9991,2 52989  53.2154 234.5589 0001495  96.5961 263.5202 15.08851040113575,6917.847,95.437,540.746,538.677,0.0
52989.0,STARLINK-4293,PAYLOAD,2024-07-27 08:23:24,15.08852733,0.000146,53.2158,234.2615,90.827,269.2889,-5.05e-05,-1.092e-05,0.0,0 STARLINK-4293,1 52989U 22076D   24209.34958904 -.00001092  00000-0 -50500-4 0  9997,2 52989  53.2158 234.2615 0001460  90.8270 269.2889 15.08852733114056,6917.841,95.437,540.716,538.696,0.0
52989.0,STARLINK-4293,PAYLOAD,2024-07-27 11:34:10,15.0884862,0.0001354,53.215,233.6676,90.2035,269.9112,-7.6515e-05,-1.506e-05,0.0,0 STARLINK-4293,1 52989U 22076D   24209.48207123 -.00001506  00000-0 -76515-4 0  9996,2 52989  53.2150 233.6676 0001354  90.2035 269.9112 15.08848620113609,6917.854,95.437,540.656,538.782,0.0
52989.0,STARLINK-4293,PAYLOAD,2024-07-28 11:24:57,15.08842234,0.0001341,53.215,229.2067,87.3184,272.7961,-4.6617e-05,-1.03e-05,0.0,0 STARLINK-4293,1 52989U 22076D   24210.47567107 -.00001030  00000-0 -46617-4 0  9990,2 52989  53.2150 229.2067 0001341  87.3184 272.7961 15.08842234114220,6917.874,95.437,540.666,538.811,0.0
52989.0,STARLINK-4293,PAYLOAD,2024-07-29 06:29:35,15.0883471,0.0001286,53.2149,225.6379,83.5554,276.5585,2.7892e-05,1.56e-06,0.0,0 STARLINK-4293,1 52989U 22076D   24211.27055336  .00000156  00000-0  27892-4 0  9995,2 52989  53.2149 225.6379 0001286  83.5554 276.5585 15.08834710113875,6917.897,95.438,540.651,538.872,0.0
52989.0,STARLINK-4293,PAYLOAD,2024-07-30 11:06:32,15.08837716,0.0001282,53.2148,220.2856,86.6244,273.4895,4.0441e-05,3.56e-06,0.0,0 STARLINK-4293,1 52989U 22076D   24212.46287447  .00000356  00000-0  40441-4 0  9994,2 52989  53.2148 220.2856 0001282  86.6244 273.4895 15.08837716114523,6917.887,95.438,540.639,538.865,0.0
52989.0,STARLINK-4293,PAYLOAD,2024-07-30 17:28:04,15.08838615,0.0001278,53.2149,219.0961,86.5545,273.5594,5.1427e-05,5.31e-06,0.0,0 STARLINK-4293,1 52989U 22076D   24212.72783387  .00000531  00000-0  51427-4 0  9998,2 52989  53.2149 219.0961 0001278  86.5545 273.5594 15.08838615114093,6917.885,95.438,540.634,538.866,0.0
52989.0,STARLINK-4293,PAYLOAD,2024-07-31 04:35:47,15.08831756,0.0001435,53.2159,217.0155,92.0721,268.0436,1.9246e-05,1.8e-07,0.0,0 STARLINK-4293,1 52989U 22076D   24213.19152118  .00000018  00000-0  19246-4 0  9995,2 52989  53.2159 217.0155 0001435  92.0721 268.0436 15.08831756114633,6917.906,95.438,540.763,538.778,0.0
52989.0,STARLINK-4293,PAYLOAD,2024-07-31 07:46:33,15.0883303,0.0001432,53.2157,216.4207,90.6418,269.4738,2.9142e-05,1.76e-06,0.0,0 STARLINK-4293,1 52989U 22076D   24213.32400069  .00000176  00000-0  29142-4 0  9992,2 52989  53.2157 216.4207 0001432  90.6418 269.4738 15.08833030114183,6917.902,95.438,540.757,538.776,0.0
52989.0,STARLINK-4293,PAYLOAD,2024-07-31 17:18:52,15.08837304,0.0001488,53.2161,214.6367,90.5516,269.5647,4.8909e-05,4.9e-06,0.0,0 STARLINK-4293,1 52989U 22076D   24213.72143850  .00000490  00000-0  48909-4 0  9999,2 52989  53.2161 214.6367 0001488  90.5516 269.5647 15.08837304114249,6917.889,95.438,540.783,538.724,0.0
52989.0,STARLINK-4293,PAYLOAD,2024-08-01 04:26:33,15.08845334,0.0001445,53.2159,212.5548,90.7266,269.3892,9.1516e-05,1.169e-05,0.0,0 STARLINK-4293,1 52989U 22076D   24214.18511187  .00001169  00000-0  91516-4 0  9998,2 52989  53.2159 212.5548 0001445  90.7266 269.3892 15.08845334114782,6917.864,95.437,540.729,538.729,0.0
